     2              NAVIGATION DATA                         RINEX VERSION / TYPE
CCRINEXN V1.6.0 UX  CDDIS               01-APR-22 19:31     PGM / RUN BY / DATE 
IGS BROADCAST EPHEMERIS FILE                                COMMENT             
    0.2980D-07  0.7451D-08 -0.1788D-06  0.0000D+00          ION ALPHA           
    0.1331D+06  0.0000D+00 -0.2621D+06  0.2621D+06          ION BETA            
   -0.279396772385D-08-0.444089209850D-14   589824     2203 DELTA-UTC: A0,A1,T,W
    18                                                      LEAP SECONDS        
                                                            END OF HEADER       
29 22  3 31  8  0  0.0-0.497652683407D-03-0.432009983342D-11 0.000000000000D+00
    0.660000000000D+02-0.738437500000D+02 0.380051544958D-08 0.282385183971D+01
   -0.376440584660D-05 0.197741296142D-02 0.110231339931D-04 0.515373250580D+04
    0.374400000000D+06-0.521540641785D-07 0.263524439050D+01-0.707805156708D-07
    0.981531226018D+00 0.178156250000D+03 0.223482055860D+01-0.766531929132D-08
   -0.462519265784D-09 0.100000000000D+01 0.220300000000D+04 0.000000000000D+00
    0.280000000000D+01 0.000000000000D+00-0.102445483208D-07 0.660000000000D+02
    0.367218000000D+06 0.400000000000D+01 0.000000000000D+00 0.000000000000D+00
30 22  3 31  8  0  0.0-0.521488022059D-03-0.181898940355D-11 0.000000000000D+00
    0.880000000000D+02 0.741875000000D+02 0.500449417156D-08-0.153015086835D+00
    0.366754829884D-05 0.563866237644D-02 0.105015933514D-04 0.515379523659D+04
    0.374400000000D+06 0.279396772385D-07 0.483442112710D+00 0.912696123123D-07
    0.936468082672D+00 0.161062500000D+03-0.273021277511D+01-0.840285001243D-08
    0.321084803042D-09 0.100000000000D+01 0.220300000000D+04 0.000000000000D+00
    0.280000000000D+01 0.000000000000D+00 0.372529029846D-08 0.880000000000D+02
    0.367218000000D+06 0.400000000000D+01 0.000000000000D+00 0.000000000000D+00
31 22  3 31  8  0  0.0-0.171332154423D-03-0.170530256582D-11 0.000000000000D+00
    0.370000000000D+02 0.645625000000D+02 0.451375944477D-08-0.656591923312D+00
    0.337138772011D-05 0.104263245594D-01 0.103041529655D-04 0.515371767235D+04
    0.374400000000D+06 0.184401869774D-06 0.489238561333D+00 0.484287738800D-07
    0.955523554717D+00 0.179187500000D+03 0.383293881889D+00-0.814676791701D-08
    0.298226708054D-09 0.100000000000D+01 0.220300000000D+04 0.000000000000D+00
    0.200000000000D+01 0.000000000000D+00-0.135041773319D-07 0.370000000000D+02
    0.373267000000D+06 0.400000000000D+01 0.000000000000D+00 0.000000000000D+00
32 22  3 31  8  0  0.0-0.955741852522D-04-0.773070496507D-11 0.000000000000D+00
    0.350000000000D+02-0.921250000000D+02 0.457983362560D-08-0.296118188024D+01
   -0.473484396934D-05 0.583284767345D-02 0.983290374279D-05 0.515358836746D+04
    0.374400000000D+06 0.000000000000D+00-0.588988155755D+00-0.158324837685D-06
    0.958257750070D+00 0.186843750000D+03-0.231142712547D+01-0.803604901941D-08
   -0.474305471012D-09 0.100000000000D+01 0.220300000000D+04 0.000000000000D+00
    0.200000000000D+01 0.000000000000D+00 0.465661287308D-09 0.350000000000D+02
    0.367258000000D+06 0.400000000000D+01 0.000000000000D+00 0.000000000000D+00
18 22  3 31  8 14 40.0 0.207101926208D-03-0.909494701773D-11 0.000000000000D+00
    0.550000000000D+02 0.665937500000D+02 0.412588614543D-08 0.866816330745D+00
    0.351481139660D-05 0.216598063707D-02 0.109933316708D-04 0.515361265373D+04
    0.375280000000D+06 0.298023223877D-07-0.265632482204D+01 0.223517417908D-07
    0.971319398049D+00 0.174031250000D+03 0.306708832486D+01-0.785104131310D-08
    0.509306928964D-09 0.100000000000D+01 0.220300000000D+04 0.000000000000D+00
    0.200000000000D+01 0.000000000000D+00-0.838190317154D-08 0.550000000000D+02
    0.368149000000D+06 0.400000000000D+01 0.000000000000D+00 0.000000000000D+00
 1 22  3 31  9 59 44.0 0.396009068936D-03-0.886757334229D-11 0.000000000000D+00
    0.900000000000D+01 0.671562500000D+02 0.368872507878D-08 0.152111573415D+01
    0.349059700966D-05 0.116420971463D-01 0.110771507025D-04 0.515367391205D+04
    0.381584000000D+06-0.264495611191D-06-0.266352977843D+01 0.335276126862D-07
    0.987531824859D+00 0.180437500000D+03 0.888137968226D+00-0.780461080765D-08
    0.436803908922D-09 0.100000000000D+01 0.220300000000D+04 0.000000000000D+00
    0.200000000000D+01 0.000000000000D+00 0.512227416039D-08 0.900000000000D+01
    0.374449000000D+06 0.400000000000D+01 0.000000000000D+00 0.000000000000D+00
 2 22  3 31  9 59 44.0-0.652794260532D-03-0.341060513165D-12 0.000000000000D+00
    0.900000000000D+01 0.646250000000D+02 0.406838375023D-08 0.166016022543D+01
    0.325590372086D-05 0.205357741797D-01 0.118222087622D-04 0.515363617706D+04
    0.381584000000D+06 0.346451997757D-06-0.275366290427D+01-0.396743416786D-06
    0.965804066690D+00 0.147875000000D+03-0.142781744754D+01-0.772496463293D-08
    0.498949354672D-09 0.100000000000D+01 0.220300000000D+04 0.000000000000D+00
    0.200000000000D+01 0.000000000000D+00-0.176951289177D-07 0.900000000000D+01
    0.374418000000D+06 0.400000000000D+01 0.000000000000D+00 0.000000000000D+00
 9 22  3 31  9 59 44.0-0.346656888723D-03 0.227373675443D-11 0.000000000000D+00
    0.000000000000D+00-0.818437500000D+02 0.475948396590D-08-0.211827247482D+01
   -0.418908894062D-05 0.213799509220D-02 0.992044806480D-05 0.515359936142D+04
    0.381584000000D+06-0.186264514923D-08-0.600438234160D+00 0.651925802231D-07
    0.954409596728D+00 0.187406250000D+03 0.188328346099D+01-0.812069540242D-08
   -0.408231290186D-09 0.100000000000D+01 0.220300000000D+04 0.000000000000D+00
    0.200000000000D+01 0.000000000000D+00 0.139698386192D-08 0.000000000000D+00
    0.377868000000D+06 0.400000000000D+01 0.000000000000D+00 0.000000000000D+00
15 22  3 31  9 59 44.0-0.725979916751D-04 0.295585778076D-11 0.000000000000D+00
    0.700000000000D+01-0.112500000000D+03 0.534165107264D-08 0.276624542609D+01
   -0.586919486523D-05 0.139684613096D-01 0.870786607266D-05 0.515376410675D+04
    0.381584000000D+06 0.819563865662D-07-0.707631252322D+00-0.191852450371D-06
    0.930194689108D+00 0.193750000000D+03 0.108331761495D+01-0.826391565383D-08
   -0.529664919813D-09 0.100000000000D+01 0.220300000000D+04 0.000000000000D+00
    0.200000000000D+01 0.000000000000D+00-0.107102096081D-07 0.700000000000D+01
    0.377856000000D+06 0.400000000000D+01 0.000000000000D+00 0.000000000000D+00
22 22  3 31  9 59 44.0 0.235947314650D-03 0.591171556152D-11 0.000000000000D+00
    0.140000000000D+02-0.915937500000D+02 0.443089885044D-08-0.271178097284D+01
   -0.468268990517D-05 0.131671006093D-01 0.104922801256D-04 0.515367916107D+04
    0.381584000000D+06 0.223517417908D-06-0.498801601226D+00-0.260770320892D-07
    0.961611786739D+00 0.173343750000D+03-0.186386878843D+01-0.782211153663D-08
   -0.335371112410D-09 0.100000000000D+01 0.220300000000D+04 0.000000000000D+00
    0.200000000000D+01 0.000000000000D+00-0.977888703346D-08 0.140000000000D+02
    0.379357000000D+06 0.400000000000D+01 0.000000000000D+00 0.000000000000D+00
29 22  3 31  9 59 44.0-0.497685745358D-03-0.432009983342D-11 0.000000000000D+00
    0.500000000000D+01-0.712187500000D+02 0.387837583564D-08-0.241176090259D+01
   -0.370107591152D-05 0.197782414034D-02 0.112876296043D-04 0.515373156738D+04
    0.381584000000D+06 0.353902578354D-07 0.263518943744D+01 0.931322574616D-08
    0.981527346360D+00 0.172125000000D+03 0.223505399497D+01-0.774460830831D-08
   -0.528593446610D-09 0.100000000000D+01 0.220300000000D+04 0.000000000000D+00
    0.200000000000D+01 0.000000000000D+00-0.102445483208D-07 0.500000000000D+01
    0.377736000000D+06 0.400000000000D+01 0.000000000000D+00 0.000000000000D+00
30 22  3 31  9 59 44.0-0.521501060575D-03-0.181898940355D-11 0.000000000000D+00
    0.390000000000D+02 0.794375000000D+02 0.507378277199D-08 0.894749642577D+00
    0.434741377831D-05 0.563944794703D-02 0.103600323200D-04 0.515379669380D+04
    0.381584000000D+06-0.149011611938D-07 0.483381888762D+00 0.856816768646D-07
    0.936470379453D+00 0.164562500000D+03-0.273020159841D+01-0.838784938759D-08
    0.297869550319D-09 0.100000000000D+01 0.220300000000D+04 0.000000000000D+00
    0.200000000000D+01 0.000000000000D+00 0.372529029846D-08 0.390000000000D+02
    0.374418000000D+06 0.400000000000D+01 0.000000000000D+00 0.000000000000D+00
 3 22  3 31 10  0  0.0-0.187095254660D-03-0.160298441187D-10 0.000000000000D+00
    0.170000000000D+02 0.111875000000D+02 0.480055710533D-08 0.392961625755D+00
    0.363215804100D-06 0.397881737445D-02 0.277906656265D-05 0.515364872169D+04
    0.381600000000D+06 0.353902578354D-07-0.162890789188D+01 0.149011611938D-07
    0.972674946719D+00 0.334375000000D+03 0.944302949642D+00-0.851071164816D-08
    0.108575951196D-09 0.100000000000D+01 0.220300000000D+04 0.000000000000D+00
    0.200000000000D+01 0.000000000000D+00 0.186264514923D-08 0.170000000000D+02
    0.377629000000D+06 0.400000000000D+01 0.000000000000D+00 0.000000000000D+00
 4 22  3 31 10  0  0.0-0.179647002369D-03 0.284217094304D-11 0.000000000000D+00
    0.184000000000D+03-0.772187500000D+02 0.451661670664D-08-0.302366828575D+01
   -0.397115945816D-05 0.176910846494D-02 0.102277845144D-04 0.515364377785D+04
    0.381600000000D+06-0.521540641785D-07-0.547134192392D+00 0.745058059692D-08
    0.961440648731D+00 0.186218750000D+03-0.299967588504D+01-0.800319050787D-08
   -0.398945189097D-09 0.100000000000D+01 0.220300000000D+04 0.000000000000D+00
    0.200000000000D+01 0.000000000000D+00-0.419095158577D-08 0.184000000000D+03
    0.379849000000D+06 0.400000000000D+01 0.000000000000D+00 0.000000000000D+00
